KUIPER-00176            
1 65788U 25217AC  25344.83334491 -.01120322  00000+0 -91208-1 0  9997
2 65788  51.8874  77.3978 0004733 334.4918 186.7234 15.02211037  4477
KUIPER-00101            
1 65947U 25228A   25344.83334491 -.01719072  00000+0 -15681+0 0  9991
2 65947  51.8965  34.2781 0004682  35.2844 309.2345 14.98243986  4473
KUIPER-00113            
1 65948U 25228B   25344.83071286  .00026472  00000+0  15074-2 0  9993
2 65948  51.8852  31.8410 0005810 359.0647   1.0318 15.12634889 10098
KUIPER-00117            
1 65949U 25228C   25344.83334491 -.00515645  00000+0 -38351-1 0  9993
2 65949  51.8906  32.7697 0009760  13.3648 247.8952 15.04764484  5730
KUIPER-00121            
1 65950U 25228D   25344.83334491 -.00673262  00000+0 -30422-1 0  9996
2 65950  51.8814  30.6304 0007151  19.9048 295.1100 15.23033648  5261
KUIPER-00122            
1 65951U 25228E   25344.83334491 -.00155556  00000+0 -16643-1 0  9997
2 65951  51.9222  36.2260 0006988  38.2955  70.6653 14.89161088  5605
KUIPER-00123            
1 65952U 25228F   25344.83334491 -.00580754  00000+0 -66697-1 0  9994
2 65952  51.8995  36.2266 0007367  18.7006 300.0752 14.87870580  3419
KUIPER-00124            
1 65953U 25228G   25344.83334491 -.00012593  00000+0 -66431-3 0  9994
2 65953  51.8886  30.9456 0005755  25.0723 144.3475 15.14263449  5196
